{
  "type": "FeatureCollection",
  "features": [
    {
      "type": "Feature",
      "properties": {
        "norad_id": 29876,
        "name": "FENGYUN 1C DEB",
        "group": "fengyun-1c-debris",
        "lat": 1.5406083036987495,
        "lon": -145.68366233457897,
        "alt_km": 865.9547431697092,
        "timestamp": "2025-12-09T07:41:33.480117+00:00",
        "meta_object_name": "FENGYUN 1C DEB",
        "meta_object_id": "1999-025FW",
        "meta_epoch": "2025-12-08T02:23:55.197888",
        "meta_mean_motion": 14.20292812,
        "meta_eccentricity": 0.00617665,
        "meta_inclination": 98.3338,
        "meta_ra_of_asc_node": 32.9402,
        "meta_arg_of_pericenter": 30.8254,
        "meta_mean_anomaly": 29.8082,
        "meta_ephemeris_type": 0,
        "meta_classification_type": "U",
        "meta_norad_cat_id": 29876,
        "meta_element_set_no": 999,
        "meta_rev_at_epoch": 97851,
        "meta_bstar": 0.00021655649,
        "meta_mean_motion_dot": 4.32e-06,
        "meta_mean_motion_ddot": 0,
        "tle_line1": "1 29876U 99025FW  25342.09994442  .00000432  00000+0  21656-3 0  9995",
        "tle_line2": "2 29876  98.3338  32.9402 0061766  30.8254  29.8082 14.20292812978516"
      },
      "geometry": {
        "type": "Point",
        "coordinates": [
          -145.68366233457897,
          1.5406083036987495
        ]
      }
    },
    {
      "type": "Feature",
      "properties": {
        "norad_id": 29877,
        "name": "FENGYUN 1C DEB",
        "group": "fengyun-1c-debris",
        "lat": -16.128008394186956,
        "lon": -8.784330903909218,
        "alt_km": 827.9079628793943,
        "timestamp": "2025-12-09T07:41:33.480127+00:00",
        "meta_object_name": "FENGYUN 1C DEB",
        "meta_object_id": "1999-025FX",
        "meta_epoch": "2025-12-08T23:35:43.944000",
        "meta_mean_motion": 14.24778171,
        "meta_eccentricity": 0.00457153,
        "meta_inclination": 98.5371,
        "meta_ra_of_asc_node": 348.3982,
        "meta_arg_of_pericenter": 229.5191,
        "meta_mean_anomaly": 184.3083,
        "meta_ephemeris_type": 0,
        "meta_classification_type": "U",
        "meta_norad_cat_id": 29877,
        "meta_element_set_no": 999,
        "meta_rev_at_epoch": 97920,
        "meta_bstar": 0.0006898771,
        "meta_mean_motion_dot": 1.583e-05,
        "meta_mean_motion_ddot": 0,
        "tle_line1": "1 29877U 99025FX  25342.98314750  .00001583  00000+0  68988-3 0  9999",
        "tle_line2": "2 29877  98.5371 348.3982 0045715 229.5191 184.3083 14.24778171979202"
      },
      "geometry": {
        "type": "Point",
        "coordinates": [
          -8.784330903909218,
          -16.128008394186956
        ]
      }
    },
    {
      "type": "Feature",
      "properties": {
        "norad_id": 29878,
        "name": "FENGYUN 1C DEB",
        "group": "fengyun-1c-debris",
        "lat": 46.7971293004576,
        "lon": 148.6888808043424,
        "alt_km": 552.0640094334012,
        "timestamp": "2025-12-09T07:41:33.480138+00:00",
        "meta_object_name": "FENGYUN 1C DEB",
        "meta_object_id": "1999-025FY",
        "meta_epoch": "2025-12-08T23:31:22.151136",
        "meta_mean_motion": 15.08473231,
        "meta_eccentricity": 0.00292502,
        "meta_inclination": 96.9483,
        "meta_ra_of_asc_node": 155.8419,
        "meta_arg_of_pericenter": 188.8195,
        "meta_mean_anomaly": 171.2525,
        "meta_ephemeris_type": 0,
        "meta_classification_type": "U",
        "meta_norad_cat_id": 29878,
        "meta_element_set_no": 999,
        "meta_rev_at_epoch": 98591,
        "meta_bstar": 0.0091544709,
        "meta_mean_motion_dot": 0.00146763,
        "meta_mean_motion_ddot": 0,
        "tle_line1": "1 29878U 99025FY  25342.98011749  .00146763  00000+0  91545-2 0  9996",
        "tle_line2": "2 29878  96.9483 155.8419 0029250 188.8195 171.2525 15.08473231985915"
      },
      "geometry": {
        "type": "Point",
        "coordinates": [
          148.6888808043424,
          46.7971293004576
        ]
      }
    },
    {
      "type": "Feature",
      "properties": {
        "norad_id": 29880,
        "name": "FENGYUN 1C DEB",
        "group": "fengyun-1c-debris",
        "lat": -76.82386614969478,
        "lon": 44.2587587020587,
        "alt_km": 1065.3123666158554,
        "timestamp": "2025-12-09T07:41:33.480148+00:00",
        "meta_object_name": "FENGYUN 1C DEB",
        "meta_object_id": "1999-025GA",
        "meta_epoch": "2025-12-08T06:57:11.668032",
        "meta_mean_motion": 13.93886986,
        "meta_eccentricity": 0.02314461,
        "meta_inclination": 98.1942,
        "meta_ra_of_asc_node": 261.3301,
        "meta_arg_of_pericenter": 113.9498,
        "meta_mean_anomaly": 14.5654,
        "meta_ephemeris_type": 0,
        "meta_classification_type": "U",
        "meta_norad_cat_id": 29880,
        "meta_element_set_no": 999,
        "meta_rev_at_epoch": 95500,
        "meta_bstar": 0.0014412467,
        "meta_mean_motion_dot": 2.34e-05,
        "meta_mean_motion_ddot": 0,
        "tle_line1": "1 29880U 99025GA  25342.28971838  .00002340  00000+0  14412-2 0  9996",
        "tle_line2": "2 29880  98.1942 261.3301 0231446 113.9498  14.5654 13.93886986955008"
      },
      "geometry": {
        "type": "Point",
        "coordinates": [
          44.2587587020587,
          -76.82386614969478
        ]
      }
    },
    {
      "type": "Feature",
      "properties": {
        "norad_id": 29881,
        "name": "FENGYUN 1C DEB",
        "group": "fengyun-1c-debris",
        "lat": 50.88000909945923,
        "lon": -55.010650989798584,
        "alt_km": 841.2647450115383,
        "timestamp": "2025-12-09T07:41:33.480158+00:00",
        "meta_object_name": "FENGYUN 1C DEB",
        "meta_object_id": "1999-025GB",
        "meta_epoch": "2025-12-08T21:08:52.110816",
        "meta_mean_motion": 13.59589621,
        "meta_eccentricity": 0.02920479,
        "meta_inclination": 98.7219,
        "meta_ra_of_asc_node": 315.4775,
        "meta_arg_of_pericenter": 81.7749,
        "meta_mean_anomaly": 342.2366,
        "meta_ephemeris_type": 0,
        "meta_classification_type": "U",
        "meta_norad_cat_id": 29881,
        "meta_element_set_no": 999,
        "meta_rev_at_epoch": 93182,
        "meta_bstar": 0.0026373913,
        "meta_mean_motion_dot": 2.554e-05,
        "meta_mean_motion_ddot": 0,
        "tle_line1": "1 29881U 99025GB  25342.88115869  .00002554  00000+0  26374-2 0  9994",
        "tle_line2": "2 29881  98.7219 315.4775 0292047  81.7749 342.2366 13.59589621931826"
      },
      "geometry": {
        "type": "Point",
        "coordinates": [
          -55.010650989798584,
          50.88000909945923
        ]
      }
    },
    {
      "type": "Feature",
      "properties": {
        "norad_id": 29884,
        "name": "FENGYUN 1C DEB",
        "group": "fengyun-1c-debris",
        "lat": 73.7525559326664,
        "lon": -128.1438679381752,
        "alt_km": 727.4013552286706,
        "timestamp": "2025-12-09T07:41:33.480168+00:00",
        "meta_object_name": "FENGYUN 1C DEB",
        "meta_object_id": "1999-025GE",
        "meta_epoch": "2025-12-08T15:06:38.804256",
        "meta_mean_motion": 14.40272534,
        "meta_eccentricity": 0.0044497,
        "meta_inclination": 99.603,
        "meta_ra_of_asc_node": 15.5651,
        "meta_arg_of_pericenter": 148.7231,
        "meta_mean_anomaly": 334.4027,
        "meta_ephemeris_type": 0,
        "meta_classification_type": "U",
        "meta_norad_cat_id": 29884,
        "meta_element_set_no": 999,
        "meta_rev_at_epoch": 98490,
        "meta_bstar": 0.0010854,
        "meta_mean_motion_dot": 3.426e-05,
        "meta_mean_motion_ddot": 0,
        "tle_line1": "1 29884U 99025GE  25342.62961579  .00003426  00000+0  10854-2 0  9991",
        "tle_line2": "2 29884  99.6030  15.5651 0044497 148.7231 334.4027 14.40272534984902"
      },
      "geometry": {
        "type": "Point",
        "coordinates": [
          -128.1438679381752,
          73.7525559326664
        ]
      }
    },
    {
      "type": "Feature",
      "properties": {
        "norad_id": 29885,
        "name": "FENGYUN 1C DEB",
        "group": "fengyun-1c-debris",
        "lat": -66.44246641953575,
        "lon": -61.7257281810551,
        "alt_km": 893.7082069073822,
        "timestamp": "2025-12-09T07:41:33.480178+00:00",
        "meta_object_name": "FENGYUN 1C DEB",
        "meta_object_id": "1999-025GF",
        "meta_epoch": "2025-12-08T18:43:49.718784",
        "meta_mean_motion": 14.13578495,
        "meta_eccentricity": 0.01181292,
        "meta_inclination": 98.3549,
        "meta_ra_of_asc_node": 278.0723,
        "meta_arg_of_pericenter": 175.6691,
        "meta_mean_anomaly": 248.3842,
        "meta_ephemeris_type": 0,
        "meta_classification_type": "U",
        "meta_norad_cat_id": 29885,
        "meta_element_set_no": 999,
        "meta_rev_at_epoch": 97401,
        "meta_bstar": 0.00024252097,
        "meta_mean_motion_dot": 4.49e-06,
        "meta_mean_motion_ddot": 0,
        "tle_line1": "1 29885U 99025GF  25342.78043656  .00000449  00000+0  24252-3 0  9996",
        "tle_line2": "2 29885  98.3549 278.0723 0118129 175.6691 248.3842 14.13578495974017"
      },
      "geometry": {
        "type": "Point",
        "coordinates": [
          -61.7257281810551,
          -66.44246641953575
        ]
      }
    }
  ]
}